STARLINK-1007           
1 44713U 19074A   23263.33702533  .00017809  00000+0  12103-2 0  9995
2 44713  53.0530 272.9496 0001490  87.4249 272.6911 15.06435147212890
STARLINK-1008           
1 44714U 19074B   23263.31584914  .00012281  00000+0  84115-3 0  9997
2 44714  53.0550 273.0416 0001839 117.0278 243.0899 15.06434949212892
STARLINK-1009           
1 44715U 19074C   23263.30479482  .00017205  00000+0  11697-2 0  9995
2 44715  53.0539 273.0944 0001552  85.7389 274.3777 15.06445435212885
STARLINK-1010           
1 44716U 19074D   23263.45591450  .00010488  00000+0  72129-3 0  9996
2 44716  53.0540 272.4130 0001529  90.6224 269.4940 15.06432284212891
STARLINK-1011           
1 44717U 19074E   23263.45409671 -.00000150  00000+0  87971-5 0  9999
2 44717  53.0531 292.4227 0001320  94.2817 265.8323 15.06368818212636
STARLINK-1012           
1 44718U 19074F   23263.29373862  .00019569  00000+0  13278-2 0  9993
2 44718  53.0531 273.1433 0001226  96.4261 263.6868 15.06433380212888
STARLINK-1013           
1 44719U 19074G   23263.30111070  .00010123  00000+0  69694-3 0  9998
2 44719  53.0550 273.1086 0001574  86.1937 273.9232 15.06429122214011
STARLINK-1014           
1 44720U 19074H   23263.31859037  .00013363  00000+0  91342-3 0  9997
2 44720  53.0553 273.0224 0001778 112.9268 247.1909 15.06435795212891
STARLINK-1015           
1 44721U 19074J   23263.50751931  .00014970  00000+0  10207-2 0  9998
2 44721  53.0534 272.1844 0001530  80.0596 280.0565 15.06439040212918
STARLINK-1017           
1 44723U 19074L   23263.26056589  .00015032  00000+0  10250-2 0  9998
2 44723  53.0535 273.2920 0001495  81.1936 278.9223 15.06431740212880
STARLINK-1019           
1 44724U 19074M   23263.35639831  .00019746  00000+0  13395-2 0  9995
2 44724  53.0529 272.8628 0001431  87.9045 272.2108 15.06436623212894
STARLINK-1020           
1 44725U 19074N   23263.36194681 -.00000758  00000+0 -32008-4 0  9995
2 44725  53.0550 292.8357 0001611  89.9949 270.1225 15.06396055212616
STARLINK-1021           
1 44726U 19074P   23263.35271404  .00018144  00000+0  12328-2 0  9991
2 44726  53.0529 272.8790 0001467  88.3295 271.7862 15.06431696212893
STARLINK-1024           
1 44729U 19074S   23263.53970556  .00045437  00000+0  71804-3 0  9998
2 44729  53.0171 200.7759 0008754  99.5705 260.6294 15.53010859213871
STARLINK-1026           
1 44731U 19074U   23263.38081394  .01881947  22092-2  39702-2 0  9990
2 44731  53.0490 237.2024 0002137 179.9918 180.1112 15.98761351213397
STARLINK-1027           
1 44732U 19074V   23263.35088570 -.00007264  00000+0 -46952-3 0  9992
2 44732  53.0540 292.8872 0001427  81.9064 278.2087 15.06377663212619
STARLINK-1028           
1 44733U 19074W   23263.34903436  .00001849  00000+0  14293-3 0  9993
2 44733  53.0540 272.8959 0001382  90.3868 269.7280 15.06408818212897
STARLINK-1029           
1 44734U 19074X   23263.49649345 -.00004655  00000+0 -29408-3 0  9990
2 44734  53.0536 192.2318 0001405  85.5828 274.5321 15.06364413214181
STARLINK-1030           
1 44735U 19074Y   23263.49095285 -.00003816  00000+0 -23755-3 0  9996
2 44735  53.0537 292.2595 0001384 103.3764 256.7379 15.06383340212807
STARLINK-1031           
1 44736U 19074Z   23263.43935264 -.00003187  00000+0 -19516-3 0  9992
2 44736  53.0553 292.4861 0001671 107.9569 252.1602 15.06392034212805
STARLINK-1032           
1 44737U 19074AA  23263.45040934 -.00005534  00000+0 -35309-3 0  9992
2 44737  53.0530 292.4390 0001370  95.0144 265.1001 15.06383698212803
STARLINK-1033           
1 44738U 19074AB  23263.58334491  .00272983  00000+0  92844-3 0  9990
2 44738  53.0429 224.8529 0005714  90.2669 232.6972 15.88574718  6003
STARLINK-1035           
1 44740U 19074AD  23263.31402747  .00002461  00000+0  18417-3 0  9990
2 44740  53.0535 293.0499 0001320  82.2704 277.8435 15.06377064212614
STARLINK-1036           
1 44741U 19074AE  23263.45778208  .00009882  00000+0  68197-3 0  9998
2 44741  53.0542 292.4087 0001423  90.1187 269.9965 15.06368392212801
STARLINK-1038           
1 44743U 19074AG  23263.37484935  .00012218  00000+0  83785-3 0  9999
2 44743  53.0539 312.7777 0001522 101.4590 258.6570 15.06392952212430
STARLINK-1039           
1 44744U 19074AH  23263.45225537  .00001336  00000+0  10861-3 0  9994
2 44744  53.0539 312.4325 0001323  83.6617 276.4523 15.06386198212359
STARLINK-1041           
1 44746U 19074AK  23263.37116608  .00006020  00000+0  42298-3 0  9999
2 44746  53.0549 312.7949 0001640 110.3999 249.7166 15.06375452212346
STARLINK-1042           
1 44747U 19074AL  23263.40064871  .00011190  00000+0  76898-3 0  9995
2 44747  53.0540 312.6642 0001472  96.3074 263.8082 15.06396665212351
STARLINK-1043           
1 44748U 19074AM  23263.49648859  .00005582  00000+0  39346-3 0  9994
2 44748  53.0552 312.2309 0001359  84.6596 275.4548 15.06390337212361
STARLINK-1046           
1 44751U 19074AQ  23263.44488333  .00001282  00000+0  10501-3 0  9997
2 44751  53.0539 312.4672 0001469  95.6692 264.4464 15.06381773212354
STARLINK-1047           
1 44752U 19074AR  23263.46515275 -.00003185  00000+0 -19515-3 0  9996
2 44752  53.0540 292.3727 0001399  96.7134 263.4015 15.06377314212637
STARLINK-1048           
1 44753U 19074AS  23263.33796953  .00018020  00000+0  12244-2 0  9990
2 44753  53.0530 272.9459 0001515  88.0452 272.0710 15.06435610212890
STARLINK-1049           
1 44754U 19074AT  23263.58334491  .00226236  00000+0  11401-2 0  9997
2 44754  53.0369 191.0719 0002646 179.1033 320.3066 15.80480351  6159
STARLINK-1052           
1 44757U 19074AW  23263.46709964  .00019774  00000+0  13020-2 0  9994
2 44757  53.0538 292.2697 0002339  47.8808 312.2380 15.07540587212637
STARLINK-1053           
1 44758U 19074AX  23263.42646517  .00007668  00000+0  53332-3 0  9995
2 44758  53.0543 312.6336 0001371  86.8450 273.2695 15.06386627212358
STARLINK-1054           
1 44759U 19074AY  23263.40802522  .00009151  00000+0  63264-3 0  9998
2 44759  53.0539 312.6314 0001462  89.7815 270.3341 15.06386589209997
STARLINK-1055           
1 44760U 19074AZ  23263.50568819  .00010150  00000+0  47386-3 0  9997
2 44760  53.0537 297.3226 0001831  77.6702 282.4497 15.20412806212582
STARLINK-1056           
1 44761U 19074BA  23263.40433598  .00016687  00000+0  11373-2 0  9999
2 44761  53.0541 312.6486 0001454  92.7788 267.3367 15.06373701212357
STARLINK-1057           
1 44762U 19074BB  23263.40617708 -.00007206  00000+0 -46559-3 0  9991
2 44762  53.0535 292.6396 0001360  88.6487 271.4658 15.06378912212622
STARLINK-1058           
1 44763U 19074BC  23263.42550905  .00018354  00000+0  12483-2 0  9991
2 44763  53.0546 312.5450 0001459  88.1867 271.9289 15.06386062212354
STARLINK-1059           
1 44764U 19074BD  23263.52125589  .00014520  00000+0  60059-3 0  9993
2 44764  53.0848 263.7078 0007444  60.3831 299.7907 15.24191939213056
STARLINK-1060           
1 44765U 19074BE  23263.35457197  .00002405  00000+0  18025-3 0  9993
2 44765  53.0535 292.8722 0002040 155.7112 204.3974 15.06409259212611
STARLINK-1061           
1 44766U 19074BF  23263.41908066  .00007047  00000+0  49161-3 0  9999
2 44766  53.0542 312.5818 0001436  87.8623 272.2531 15.06392683212352
STARLINK-1062           
1 44767U 19074BG  23263.41076793  .00015107  00000+0  10300-2 0  9991
2 44767  53.0544 312.6111 0001410  84.6034 275.5116 15.06432501212354
STARLINK-1063           
1 44768U 19074BH  23263.43382436  .00014487  00000+0  98963-3 0  9990
2 44768  53.0555 312.5137 0001500  84.4208 275.6952 15.06394026212364
STARLINK-1067           
1 44771U 19074BL  23263.42276817  .00002584  00000+0  19239-3 0  9992
2 44771  53.0548 312.5642 0001366  89.9831 270.1314 15.06386630212356
STARLINK-1068           
1 44772U 19074BM  23263.34719898 -.00005714  00000+0 -36525-3 0  9992
2 44772  53.0536 292.9045 0001399  92.9334 267.1815 15.06378099212611
STARLINK-1073           
1 44914U 20001A   23263.49648578  .00004537  00000+0  32340-3 0  9995
2 44914  53.0549  72.2301 0001320  91.0880 269.0260 15.06388679204012
STARLINK-1084           
1 44915U 20001B   23263.45962782  .00008712  00000+0  60332-3 0  9999
2 44915  53.0550  72.3980 0001474  67.7778 292.3367 15.06382326204015
STARLINK-1098           
1 44917U 20001D   23263.46331364  .00007839  00000+0  54471-3 0  9994
2 44917  53.0546  72.3806 0001631  56.7522 303.3623 15.06388136204012
STARLINK-1099           
1 44918U 20001E   23263.60980990  .00003395  00000+0  24679-3 0  9996
2 44918  53.0549  71.7518 0001390  70.3371 289.7768 15.06389980204773
STARLINK-1102           
1 44920U 20001G   23263.58139139  .00011492  00000+0  50783-3 0  9999
2 44920  53.0594  51.2266 0002533 251.7337 108.3383 15.22170987204329
STARLINK-1103           
1 44921U 20001H   23263.44392449  .00011247  00000+0  77261-3 0  9998
2 44921  53.0547  72.4571 0001304  74.0746 286.0386 15.06406692203982
STARLINK-1104           
1 44922U 20001J   23263.61075302  .00003100  00000+0  22697-3 0  9996
2 44922  53.0541  71.7163 0001251  87.6874 272.4258 15.06387361204034
STARLINK-1106           
1 44923U 20001K   23263.58274308  .00011904  00000+0  56479-3 0  9996
2 44923  53.0565  59.4521 0003334  95.5148 264.6227 15.19683356204203
STARLINK-1111           
1 44924U 20001L   23263.49280588 -.00000273  00000+0  56376-6 0  9991
2 44924  53.0554  72.2698 0001220  84.5075 275.6053 15.06395716204013
STARLINK-1112           
1 44925U 20001M   23263.44119387  .00007754  00000+0  53907-3 0  9999
2 44925  53.0549  72.4854 0001298  79.1595 280.9540 15.06388328204006
STARLINK-1113           
1 44926U 20001N   23263.50385498  .00015778  00000+0  10754-2 0  9992
2 44926  53.0541  72.2857 0001245  70.0553 290.0570 15.06412310204707
STARLINK-1114           
1 44927U 20001P   23263.45225181 -.00000361  00000+0 -53817-5 0  9993
2 44927  53.0545  72.4284 0001181  78.6315 281.4807 15.06383293204015
STARLINK-1119           
